[{"OBJECT_NAME":"STARLINK-31399","OBJECT_ID":"2024-064U","EPOCH":"2026-03-09T23:45:15.858432","MEAN_MOTION":15.27558367,"ECCENTRICITY":0.00023887,"INCLINATION":43.0024,"RA_OF_ASC_NODE":54.3007,"ARG_OF_PERICENTER":299.8339,"MEAN_ANOMALY":60.2275,"EPHEMERIS_TYPE":0,"CLASSIFICATION_TYPE":"U","NORAD_CAT_ID":59416,"ELEMENT_SET_NO":999,"REV_AT_EPOCH":10927,"BSTAR":-7.9740352e-5,"MEAN_MOTION_DOT":-2.455e-5,"MEAN_MOTION_DDOT":0},{"OBJECT_NAME":"LIME","OBJECT_ID":"2025-009AR","EPOCH":"2026-03-09T17:44:15.459648","MEAN_MOTION":15.28703313,"ECCENTRICITY":0.00016347,"INCLINATION":97.3985,"RA_OF_ASC_NODE":151.4831,"ARG_OF_PERICENTER":35.9029,"MEAN_ANOMALY":324.232,"EPHEMERIS_TYPE":0,"CLASSIFICATION_TYPE":"U","NORAD_CAT_ID":62648,"ELEMENT_SET_NO":999,"REV_AT_EPOCH":6376,"BSTAR":0.00047722827,"MEAN_MOTION_DOT":0.00013254,"MEAN_MOTION_DDOT":0}]
